{"fetched_at":"2026-07-21T17:53:07.094Z","source":"https://celestrak.org/NORAD/elements/gp.php?GROUP=planet&FORMAT=JSON","constellation":"superdove","records":[{"OBJECT_NAME":"FLOCK 4G-23","OBJECT_ID":"2025-009AQ","EPOCH":"2026-07-21T03:51:18.690336","CLASSIFICATION_TYPE":"U","MEAN_MOTION":15.35072898,"ECCENTRICITY":0.00035044,"INCLINATION":97.3913,"RA_OF_ASC_NODE":283.8643,"ARG_OF_PERICENTER":159.0918,"MEAN_ANOMALY":201.047,"EPHEMERIS_TYPE":0,"NORAD_CAT_ID":62647,"ELEMENT_SET_NO":999,"REV_AT_EPOCH":8413,"BSTAR":0.0010047531,"MEAN_MOTION_DOT":0.00034231,"MEAN_MOTION_DDOT":0},{"OBJECT_NAME":"FLOCK 4G-34","OBJECT_ID":"2025-009AT","EPOCH":"2026-07-21T03:27:10.785312","CLASSIFICATION_TYPE":"U","MEAN_MOTION":15.29846627,"ECCENTRICITY":0.00028184,"INCLINATION":97.3954,"RA_OF_ASC_NODE":283.5649,"ARG_OF_PERICENTER":149.8459,"MEAN_ANOMALY":210.2944,"EPHEMERIS_TYPE":0,"NORAD_CAT_ID":62650,"ELEMENT_SET_NO":999,"REV_AT_EPOCH":8410,"BSTAR":0.00025575986,"MEAN_MOTION_DOT":0.00007317,"MEAN_MOTION_DDOT":0},{"OBJECT_NAME":"FLOCK 4G-21","OBJECT_ID":"2025-009AU","EPOCH":"2026-07-20T23:38:57.224256","CLASSIFICATION_TYPE":"U","MEAN_MOTION":15.33122713,"ECCENTRICITY":0.00036262,"INCLINATION":97.3976,"RA_OF_ASC_NODE":284.4407,"ARG_OF_PERICENTER":175.3585,"MEAN_ANOMALY":184.7692,"EPHEMERIS_TYPE":0,"NORAD_CAT_ID":62651,"ELEMENT_SET_NO":999,"REV_AT_EPOCH":8413,"BSTAR":0.00092909877,"MEAN_MOTION_DOT":0.00029739,"MEAN_MOTION_DDOT":0},{"OBJECT_NAME":"FLOCK 4G-31","OBJECT_ID":"2025-009AV","EPOCH":"2026-07-21T04:11:19.537152","CLASSIFICATION_TYPE":"U","MEAN_MOTION":15.29654046,"ECCENTRICITY":0.0002417,"INCLINATION":97.3958,"RA_OF_ASC_NODE":283.566,"ARG_OF_PERICENTER":147.9955,"MEAN_ANOMALY":212.1432,"EPHEMERIS_TYPE":0,"NORAD_CAT_ID":62652,"ELEMENT_SET_NO":999,"REV_AT_EPOCH":8410,"BSTAR":0.00028069475,"MEAN_MOTION_DOT":0.00007991,"MEAN_MOTION_DDOT":0},{"OBJECT_NAME":"FLOCK 4G-4","OBJECT_ID":"2025-009BC","EPOCH":"2026-07-21T03:16:46.718112","CLASSIFICATION_TYPE":"U","MEAN_MOTION":15.32406941,"ECCENTRICITY":0.00051817,"INCLINATION":97.3929,"RA_OF_ASC_NODE":283.362,"ARG_OF_PERICENTER":173.7628,"MEAN_ANOMALY":186.3679,"EPHEMERIS_TYPE":0,"NORAD_CAT_ID":62659,"ELEMENT_SET_NO":999,"REV_AT_EPOCH":14170,"BSTAR":0.0009314263,"MEAN_MOTION_DOT":0.00029156,"MEAN_MOTION_DDOT":0},{"OBJECT_NAME":"FLOCK 4G-6","OBJECT_ID":"2025-009BD","EPOCH":"2026-07-21T03:53:31.462944","CLASSIFICATION_TYPE":"U","MEAN_MOTION":15.30042459,"ECCENTRICITY":0.00035293,"INCLINATION":97.3929,"RA_OF_ASC_NODE":283.4071,"ARG_OF_PERICENTER":180.8966,"MEAN_ANOMALY":179.2269,"EPHEMERIS_TYPE":0,"NORAD_CAT_ID":62660,"ELEMENT_SET_NO":999,"REV_AT_EPOCH":14169,"BSTAR":0.000243924,"MEAN_MOTION_DOT":0.00007018,"MEAN_MOTION_DDOT":0},{"OBJECT_NAME":"FLOCK 4G-2","OBJECT_ID":"2025-009BE","EPOCH":"2026-07-21T03:42:18.810432","CLASSIFICATION_TYPE":"U","MEAN_MOTION":15.30402021,"ECCENTRICITY":0.00043287,"INCLINATION":97.3996,"RA_OF_ASC_NODE":284.05,"ARG_OF_PERICENTER":181.0994,"MEAN_ANOMALY":179.0238,"EPHEMERIS_TYPE":0,"NORAD_CAT_ID":62661,"ELEMENT_SET_NO":999,"REV_AT_EPOCH":14172,"BSTAR":0.00026645649,"MEAN_MOTION_DOT":0.0000776,"MEAN_MOTION_DDOT":0},{"OBJECT_NAME":"FLOCK 4G-5","OBJECT_ID":"2025-009BG","EPOCH":"2026-07-21T03:31:46.417728","CLASSIFICATION_TYPE":"U","MEAN_MOTION":15.30972741,"ECCENTRICITY":0.00039974,"INCLINATION":97.4016,"RA_OF_ASC_NODE":284.4491,"ARG_OF_PERICENTER":163.841,"MEAN_ANOMALY":196.2959,"EPHEMERIS_TYPE":0,"NORAD_CAT_ID":62663,"ELEMENT_SET_NO":999,"REV_AT_EPOCH":8413,"BSTAR":0.00023842028,"MEAN_MOTION_DOT":0.00007059,"MEAN_MOTION_DDOT":0},{"OBJECT_NAME":"FLOCK 4G-1","OBJECT_ID":"2025-009BK","EPOCH":"2026-07-21T03:21:20.188800","CLASSIFICATION_TYPE":"U","MEAN_MOTION":15.30265817,"ECCENTRICITY":0.00046046,"INCLINATION":97.401,"RA_OF_ASC_NODE":284.0141,"ARG_OF_PERICENTER":178.5212,"MEAN_ANOMALY":181.6044,"EPHEMERIS_TYPE":0,"NORAD_CAT_ID":62666,"ELEMENT_SET_NO":999,"REV_AT_EPOCH":8410,"BSTAR":0.00029249076,"MEAN_MOTION_DOT":0.00008491,"MEAN_MOTION_DDOT":0},{"OBJECT_NAME":"FLOCK 4G-14","OBJECT_ID":"2025-009BL","EPOCH":"2026-07-20T18:43:31.077120","CLASSIFICATION_TYPE":"U","MEAN_MOTION":15.29803057,"ECCENTRICITY":0.00047706,"INCLINATION":97.4013,"RA_OF_ASC_NODE":283.4489,"ARG_OF_PERICENTER":175.0835,"MEAN_ANOMALY":185.0453,"EPHEMERIS_TYPE":0,"NORAD_CAT_ID":62667,"ELEMENT_SET_NO":999,"REV_AT_EPOCH":8403,"BSTAR":0.00023411241,"MEAN_MOTION_DOT":0.00006683,"MEAN_MOTION_DDOT":0},{"OBJECT_NAME":"FLOCK 4G-10","OBJECT_ID":"2025-009BP","EPOCH":"2026-07-20T20:32:52.896192","CLASSIFICATION_TYPE":"U","MEAN_MOTION":15.29906971,"ECCENTRICITY":0.00043242,"INCLINATION":97.3911,"RA_OF_ASC_NODE":282.8152,"ARG_OF_PERICENTER":190.5399,"MEAN_ANOMALY":169.5751,"EPHEMERIS_TYPE":0,"NORAD_CAT_ID":62670,"ELEMENT_SET_NO":999,"REV_AT_EPOCH":14168,"BSTAR":0.00025240853,"MEAN_MOTION_DOT":0.00007235,"MEAN_MOTION_DDOT":0},{"OBJECT_NAME":"FLOCK 4G-36","OBJECT_ID":"2025-009BU","EPOCH":"2026-07-21T04:16:03.672192","CLASSIFICATION_TYPE":"U","MEAN_MOTION":15.29888775,"ECCENTRICITY":0.00049275,"INCLINATION":97.4002,"RA_OF_ASC_NODE":283.7661,"ARG_OF_PERICENTER":179.0474,"MEAN_ANOMALY":181.0777,"EPHEMERIS_TYPE":0,"NORAD_CAT_ID":62675,"ELEMENT_SET_NO":999,"REV_AT_EPOCH":8409,"BSTAR":0.00028340498,"MEAN_MOTION_DOT":0.00008129,"MEAN_MOTION_DDOT":0},{"OBJECT_NAME":"FLOCK 4G-15","OBJECT_ID":"2025-009BX","EPOCH":"2026-07-20T20:34:37.784928","CLASSIFICATION_TYPE":"U","MEAN_MOTION":15.29987996,"ECCENTRICITY":0.00049562,"INCLINATION":97.4005,"RA_OF_ASC_NODE":283.5912,"ARG_OF_PERICENTER":177.4365,"MEAN_ANOMALY":182.6902,"EPHEMERIS_TYPE":0,"NORAD_CAT_ID":62678,"ELEMENT_SET_NO":999,"REV_AT_EPOCH":14169,"BSTAR":0.00044927206,"MEAN_MOTION_DOT":0.00012979,"MEAN_MOTION_DDOT":0},{"OBJECT_NAME":"FLOCK 4G-30","OBJECT_ID":"2025-009BY","EPOCH":"2026-07-21T04:14:35.675520","CLASSIFICATION_TYPE":"U","MEAN_MOTION":15.34240323,"ECCENTRICITY":0.00048051,"INCLINATION":97.39,"RA_OF_ASC_NODE":283.4607,"ARG_OF_PERICENTER":179.2533,"MEAN_ANOMALY":180.8718,"EPHEMERIS_TYPE":0,"NORAD_CAT_ID":62679,"ELEMENT_SET_NO":999,"REV_AT_EPOCH":14175,"BSTAR":0.00097878924,"MEAN_MOTION_DOT":0.00032473,"MEAN_MOTION_DDOT":0},{"OBJECT_NAME":"FLOCK 4G-18","OBJECT_ID":"2025-009BZ","EPOCH":"2026-07-21T03:11:09.109248","CLASSIFICATION_TYPE":"U","MEAN_MOTION":15.32470382,"ECCENTRICITY":0.00066723,"INCLINATION":97.3995,"RA_OF_ASC_NODE":283.804,"ARG_OF_PERICENTER":191.1048,"MEAN_ANOMALY":169.0048,"EPHEMERIS_TYPE":0,"NORAD_CAT_ID":62680,"ELEMENT_SET_NO":999,"REV_AT_EPOCH":14173,"BSTAR":0.00096493494,"MEAN_MOTION_DOT":0.0003028,"MEAN_MOTION_DDOT":0},{"OBJECT_NAME":"FLOCK 4G-17","OBJECT_ID":"2025-009CA","EPOCH":"2026-07-21T03:28:20.707104","CLASSIFICATION_TYPE":"U","MEAN_MOTION":15.30158638,"ECCENTRICITY":0.00046665,"INCLINATION":97.391,"RA_OF_ASC_NODE":283.342,"ARG_OF_PERICENTER":191.8073,"MEAN_ANOMALY":168.3059,"EPHEMERIS_TYPE":0,"NORAD_CAT_ID":62681,"ELEMENT_SET_NO":999,"REV_AT_EPOCH":14174,"BSTAR":0.00026967758,"MEAN_MOTION_DOT":0.00007796,"MEAN_MOTION_DDOT":0}]}
