FLOCK 4G-23             
1 62647U 25009AQ  26202.16063299  .00034231  00000+0  10048-2 0  9996
2 62647  97.3913 283.8643 0003504 159.0918 201.0470 15.35072898 84136
FLOCK 4G-34             
1 62650U 25009AT  26202.14387483  .00007317  00000+0  25576-3 0  9990
2 62650  97.3954 283.5649 0002818 149.8459 210.2944 15.29846627 84109
FLOCK 4G-21             
1 62651U 25009AU  26201.98538454  .00029739  00000+0  92910-3 0  9996
2 62651  97.3976 284.4407 0003626 175.3585 184.7692 15.33122713 84134
FLOCK 4G-31             
1 62652U 25009AV  26202.17453168  .00007991  00000+0  28069-3 0  9997
2 62652  97.3958 283.5660 0002417 147.9955 212.1432 15.29654046 84108
FLOCK 4G-4              
1 62659U 25009BC  26202.13665183  .00029156  00000+0  93143-3 0  9994
2 62659  97.3929 283.3620 0005181 173.7628 186.3679 15.32406941141700
FLOCK 4G-6              
1 62660U 25009BD  26202.16216971  .00007018  00000+0  24392-3 0  9999
2 62660  97.3929 283.4071 0003529 180.8966 179.2269 15.30042459141693
FLOCK 4G-2              
1 62661U 25009BE  26202.15438438  .00007760  00000+0  26646-3 0  9991
2 62661  97.3996 284.0500 0004328 181.0994 179.0238 15.30402021141727
FLOCK 4G-5              
1 62663U 25009BG  26202.14706502  .00007059  00000+0  23842-3 0  9998
2 62663  97.4016 284.4491 0003997 163.8410 196.2959 15.30972741 84131
FLOCK 4G-1              
1 62666U 25009BK  26202.13981700  .00008491  00000+0  29249-3 0  9993
2 62666  97.4010 284.0141 0004604 178.5212 181.6044 15.30265817 84104
FLOCK 4G-14             
1 62667U 25009BL  26201.78022080  .00006683  00000+0  23411-3 0  9997
2 62667  97.4013 283.4489 0004770 175.0835 185.0453 15.29803057 84039
FLOCK 4G-10             
1 62670U 25009BP  26201.85616778  .00007235  00000+0  25241-3 0  9999
2 62670  97.3911 282.8152 0004324 190.5399 169.5751 15.29906971141683
FLOCK 4G-36             
1 62675U 25009BU  26202.17782028  .00008129  00000+0  28340-3 0  9998
2 62675  97.4002 283.7661 0004927 179.0474 181.0777 15.29888775 84099
FLOCK 4G-15             
1 62678U 25009BX  26201.85738177  .00012979  00000+0  44927-3 0  9998
2 62678  97.4005 283.5912 0004956 177.4365 182.6902 15.29987996141697
FLOCK 4G-30             
1 62679U 25009BY  26202.17680180  .00032473  00000+0  97879-3 0  9990
2 62679  97.3900 283.4607 0004805 179.2533 180.8718 15.34240323141755
FLOCK 4G-18             
1 62680U 25009BZ  26202.13274432  .00030280  00000+0  96493-3 0  9992
2 62680  97.3995 283.8040 0006672 191.1048 169.0048 15.32470382141735
FLOCK 4G-17             
1 62681U 25009CA  26202.14468411  .00007796  00000+0  26968-3 0  9992
2 62681  97.3910 283.3420 0004666 191.8073 168.3059 15.30158638141746
